{"type": "FeatureCollection", "features": [ {"type": "Feature", "properties": {"norad_id": 35834, "name": "COSMOS 2251 DEB", "group": "cosmos-2251-debris", "lat": 4.358383928301912, "lon": 112.17254838942371, "alt_km": 840.8309198141496, "timestamp": "2025-12-18T23:35:49.459974+00:00", "meta": {"OBJECT_NAME": "COSMOS 2251 DEB", "OBJECT_ID": "1993-036ATG", "EPOCH": "2025-12-17T02:40:38.175744", "MEAN_MOTION": 14.12986684, "ECCENTRICITY": 0.01092954, "INCLINATION": 73.9324, "RA_OF_ASC_NODE": 296.7605, "ARG_OF_PERICENTER": 95.953, "MEAN_ANOMALY": 281.2032, "EPHEMERIS_TYPE": 0, "CLASSIFICATION_TYPE": "U", "NORAD_CAT_ID": 35834, "ELEMENT_SET_NO": 999, "REV_AT_EPOCH": 66325, "BSTAR": 0.00039176741, "MEAN_MOTION_DOT": 7.48e-06, "MEAN_MOTION_DDOT": 0}, "tle": {"line1": "1 35834U 93036ATG 25351.11155296  .00000748  00000+0  39177-3 0  9998", "line2": "2 35834  73.9324 296.7605 0109295  95.9530 281.2032 14.12986684663254"}}, "geometry": {"type": "Point", "coordinates": [112.17254838942371, 4.358383928301912]}}, {"type": "Feature", "properties": {"norad_id": 35835, "name": "COSMOS 2251 DEB", "group": "cosmos-2251-debris", "lat": 21.97366815666532, "lon": 71.32042237846449, "alt_km": 1051.1610897235714, "timestamp": "2025-12-18T23:35:49.459985+00:00", "meta": {"OBJECT_NAME": "COSMOS 2251 DEB", "OBJECT_ID": "1993-036ATH", "EPOCH": "2025-12-18T10:42:41.881248", "MEAN_MOTION": 13.82903566, "ECCENTRICITY": 0.02908362, "INCLINATION": 74.0638, "RA_OF_ASC_NODE": 258.8428, "ARG_OF_PERICENTER": 39.1295, "MEAN_ANOMALY": 323.047, "EPHEMERIS_TYPE": 0, "CLASSIFICATION_TYPE": "U", "NORAD_CAT_ID": 35835, "ELEMENT_SET_NO": 999, "REV_AT_EPOCH": 61778, "BSTAR": 0.0012842732, "MEAN_MOTION_DOT": 1.917e-05, "MEAN_MOTION_DDOT": 0}, "tle": {"line1": "1 35835U 93036ATH 25352.44631807  .00001917  00000+0  12843-2 0  9992", "line2": "2 35835  74.0638 258.8428 0290836  39.1295 323.0470 13.82903566617789"}}, "geometry": {"type": "Point", "coordinates": [71.32042237846449, 21.97366815666532]}}, {"type": "Feature", "properties": {"norad_id": 35836, "name": "COSMOS 2251 DEB", "group": "cosmos-2251-debris", "lat": -10.944504796853417, "lon": -16.015793157785104, "alt_km": 646.4681076391453, "timestamp": "2025-12-18T23:35:49.459996+00:00", "meta": {"OBJECT_NAME": "COSMOS 2251 DEB", "OBJECT_ID": "1993-036ATJ", "EPOCH": "2025-12-15T04:57:37.173600", "MEAN_MOTION": 14.7102941, "ECCENTRICITY": 0.00240331, "INCLINATION": 74.0312, "RA_OF_ASC_NODE": 168.1432, "ARG_OF_PERICENTER": 226.3716, "MEAN_ANOMALY": 133.5463, "EPHEMERIS_TYPE": 0, "CLASSIFICATION_TYPE": "U", "NORAD_CAT_ID": 35836, "ELEMENT_SET_NO": 999, "REV_AT_EPOCH": 63556, "BSTAR": 0.0012109146, "MEAN_MOTION_DOT": 7.444e-05, "MEAN_MOTION_DDOT": 0}, "tle": {"line1": "1 35836U 93036ATJ 25349.20668025  .00007444  00000+0  12109-2 0  9991", "line2": "2 35836  74.0312 168.1432 0024033 226.3716 133.5463 14.71029410635567"}}, "geometry": {"type": "Point", "coordinates": [-16.015793157785104, -10.944504796853417]}}, {"type": "Feature", "properties": {"norad_id": 35837, "name": "COSMOS 2251 DEB", "group": "cosmos-2251-debris", "lat": -43.758800343936215, "lon": 33.48759098552962, "alt_km": 1118.7473397676868, "timestamp": "2025-12-18T23:35:49.460006+00:00", "meta": {"OBJECT_NAME": "COSMOS 2251 DEB", "OBJECT_ID": "1993-036ATK", "EPOCH": "2025-12-18T00:20:48.751296", "MEAN_MOTION": 13.63508136, "ECCENTRICITY": 0.04220326, "INCLINATION": 73.7224, "RA_OF_ASC_NODE": 198.8518, "ARG_OF_PERICENTER": 118.8065, "MEAN_ANOMALY": 29.0541, "EPHEMERIS_TYPE": 0, "CLASSIFICATION_TYPE": "U", "NORAD_CAT_ID": 35837, "ELEMENT_SET_NO": 999, "REV_AT_EPOCH": 58048, "BSTAR": 0.0022137813, "MEAN_MOTION_DOT": 3.177e-05, "MEAN_MOTION_DDOT": 0}, "tle": {"line1": "1 35837U 93036ATK 25352.01445314  .00003177  00000+0  22138-2 0  9991", "line2": "2 35837  73.7224 198.8518 0422032 118.8065  29.0541 13.63508136580487"}}, "geometry": {"type": "Point", "coordinates": [33.48759098552962, -43.758800343936215]}}, {"type": "Feature", "properties": {"norad_id": 35839, "name": "COSMOS 2251 DEB", "group": "cosmos-2251-debris", "lat": -29.8731300257451, "lon": 139.22213037641552, "alt_km": 402.3866536920268, "timestamp": "2025-12-18T23:35:49.460017+00:00", "meta": {"OBJECT_NAME": "COSMOS 2251 DEB", "OBJECT_ID": "1993-036ATM", "EPOCH": "2025-12-18T04:10:48.477216", "MEAN_MOTION": 15.56075646, "ECCENTRICITY": 0.00047858, "INCLINATION": 74.2048, "RA_OF_ASC_NODE": 311.6366, "ARG_OF_PERICENTER": 135.9151, "MEAN_ANOMALY": 224.2449, "EPHEMERIS_TYPE": 0, "CLASSIFICATION_TYPE": "U", "NORAD_CAT_ID": 35839, "ELEMENT_SET_NO": 999, "REV_AT_EPOCH": 88652, "BSTAR": 0.0046538482, "MEAN_MOTION_DOT": 0.00339059, "MEAN_MOTION_DDOT": 0}, "tle": {"line1": "1 35839U 93036ATM 25352.17417219  .00339059  00000+0  46538-2 0  9994", "line2": "2 35839  74.2048 311.6366 0004785 135.9151 224.2449 15.56075646886521"}}, "geometry": {"type": "Point", "coordinates": [139.22213037641552, -29.8731300257451]}}, {"type": "Feature", "properties": {"norad_id": 35840, "name": "COSMOS 2251 DEB", "group": "cosmos-2251-debris", "lat": -67.98592775971501, "lon": 12.082807560035395, "alt_km": 845.9473545139963, "timestamp": "2025-12-18T23:35:49.460027+00:00", "meta": {"OBJECT_NAME": "COSMOS 2251 DEB", "OBJECT_ID": "1993-036ATN", "EPOCH": "2025-12-12T04:26:56.474304", "MEAN_MOTION": 14.37821687, "ECCENTRICITY": 0.01162768, "INCLINATION": 73.9307, "RA_OF_ASC_NODE": 159.2062, "ARG_OF_PERICENTER": 61.7798, "MEAN_ANOMALY": 299.5037, "EPHEMERIS_TYPE": 0, "CLASSIFICATION_TYPE": "U", "NORAD_CAT_ID": 35840, "ELEMENT_SET_NO": 999, "REV_AT_EPOCH": 85283, "BSTAR": 0.0026691111, "MEAN_MOTION_DOT": 8.683e-05, "MEAN_MOTION_DDOT": 0}, "tle": {"line1": "1 35840U 93036ATN 25346.18537586  .00008683  00000+0  26691-2 0  9994", "line2": "2 35840  73.9307 159.2062 0116276  61.7798 299.5037 14.37821687852835"}}, "geometry": {"type": "Point", "coordinates": [12.082807560035395, -67.98592775971501]}}, {"type": "Feature", "properties": {"norad_id": 35883, "name": "COSMOS 2251 DEB", "group": "cosmos-2251-debris", "lat": -0.9925472925144107, "lon": -121.43260399828445, "alt_km": 667.3199593061381, "timestamp": "2025-12-18T23:35:49.460038+00:00", "meta": {"OBJECT_NAME": "COSMOS 2251 DEB", "OBJECT_ID": "1993-036ATW", "EPOCH": "2025-12-16T04:41:35.789568", "MEAN_MOTION": 14.50615193, "ECCENTRICITY": 0.00835028, "INCLINATION": 74.0253, "RA_OF_ASC_NODE": 63.5249, "ARG_OF_PERICENTER": 192.1269, "MEAN_ANOMALY": 197.0315, "EPHEMERIS_TYPE": 0, "CLASSIFICATION_TYPE": "U", "NORAD_CAT_ID": 35883, "ELEMENT_SET_NO": 999, "REV_AT_EPOCH": 62436, "BSTAR": 0.00022216854, "MEAN_MOTION_DOT": 8.82e-06, "MEAN_MOTION_DDOT": 0}, "tle": {"line1": "1 35883U 93036ATW 25350.19555312  .00000882  00000+0  22217-3 0  9998", "line2": "2 35883  74.0253  63.5249 0083502 192.1269 197.0315 14.50615193624369"}}, "geometry": {"type": "Point", "coordinates": [-121.43260399828445, -0.9925472925144107]}}, {"type": "Feature", "properties": {"norad_id": 35884, "name": "COSMOS 2251 DEB", "group": "cosmos-2251-debris", "lat": 57.033696217268236, "lon": -9.019875789689426, "alt_km": 748.9832435486232, "timestamp": "2025-12-18T23:35:49.460048+00:00", "meta": {"OBJECT_NAME": "COSMOS 2251 DEB", "OBJECT_ID": "1993-036ATX", "EPOCH": "2025-12-16T07:19:09.379488", "MEAN_MOTION": 14.25680751, "ECCENTRICITY": 0.01084022, "INCLINATION": 73.9902, "RA_OF_ASC_NODE": 329.5521, "ARG_OF_PERICENTER": 115.5254, "MEAN_ANOMALY": 245.7151, "EPHEMERIS_TYPE": 0, "CLASSIFICATION_TYPE": "U", "NORAD_CAT_ID": 35884, "ELEMENT_SET_NO": 999, "REV_AT_EPOCH": 22408, "BSTAR": 0.00087030299, "MEAN_MOTION_DOT": 2.171e-05, "MEAN_MOTION_DDOT": 0}, "tle": {"line1": "1 35884U 93036ATX 25350.30496967  .00002171  00000+0  87030-3 0  9999", "line2": "2 35884  73.9902 329.5521 0108402 115.5254 245.7151 14.25680751224085"}}, "geometry": {"type": "Point", "coordinates": [-9.019875789689426, 57.033696217268236]}}, {"type": "Feature", "properties": {"norad_id": 35885, "name": "COSMOS 2251 DEB", "group": "cosmos-2251-debris", "lat": 57.748406768714844, "lon": 76.30746142411851, "alt_km": 768.082108334499, "timestamp": "2025-12-18T23:35:49.460059+00:00", "meta": {"OBJECT_NAME": "COSMOS 2251 DEB", "OBJECT_ID": "1993-036ATY", "EPOCH": "2025-12-18T13:01:42.797280", "MEAN_MOTION": 14.37531337, "ECCENTRICITY": 0.00235255, "INCLINATION": 74.0286, "RA_OF_ASC_NODE": 284.1104, "ARG_OF_PERICENTER": 3.2777, "MEAN_ANOMALY": 356.8526, "EPHEMERIS_TYPE": 0, "CLASSIFICATION_TYPE": "U", "NORAD_CAT_ID": 35885, "ELEMENT_SET_NO": 999, "REV_AT_EPOCH": 65099, "BSTAR": 0.00024530327, "MEAN_MOTION_DOT": 7.11e-06, "MEAN_MOTION_DDOT": 0}, "tle": {"line1": "1 35885U 93036ATY 25352.54285645  .00000711  00000+0  24530-3 0  9991", "line2": "2 35885  74.0286 284.1104 0023525   3.2777 356.8526 14.37531337650992"}}, "geometry": {"type": "Point", "coordinates": [76.30746142411851, 57.748406768714844]}}, {"type": "Feature", "properties": {"norad_id": 35888, "name": "COSMOS 2251 DEB", "group": "cosmos-2251-debris", "lat": 0.22339494598092408, "lon": 164.71932069160556, "alt_km": 686.4873776852892, "timestamp": "2025-12-18T23:35:49.460070+00:00", "meta": {"OBJECT_NAME": "COSMOS 2251 DEB", "OBJECT_ID": "1993-036AUB", "EPOCH": "2025-12-18T07:57:47.102688", "MEAN_MOTION": 14.58337918, "ECCENTRICITY": 0.00480061, "INCLINATION": 74.0336, "RA_OF_ASC_NODE": 346.0227, "ARG_OF_PERICENTER": 116.368, "MEAN_ANOMALY": 244.2425, "EPHEMERIS_TYPE": 0, "CLASSIFICATION_TYPE": "U", "NORAD_CAT_ID": 35888, "ELEMENT_SET_NO": 999, "REV_AT_EPOCH": 86355, "BSTAR": 0.00031008403, "MEAN_MOTION_DOT": 1.428e-05, "MEAN_MOTION_DDOT": 0}, "tle": {"line1": "1 35888U 93036AUB 25352.33179517  .00001428  00000+0  31008-3 0  9995", "line2": "2 35888  74.0336 346.0227 0048006 116.3680 244.2425 14.58337918863553"}}, "geometry": {"type": "Point", "coordinates": [164.71932069160556, 0.22339494598092408]}}]}